{
  "type": "FeatureCollection",
  "features": [
    {
      "type": "Feature",
      "properties": {
        "norad_id": 66517,
        "name": "STARLINK-35937",
        "group": "last-30-days",
        "lat": 40.75894763302437,
        "lon": -173.64377725661566,
        "alt_km": 402.2009990015749,
        "timestamp": "2025-12-09T07:41:31.972362+00:00",
        "meta_object_name": "STARLINK-35937",
        "meta_object_id": "2025-265B",
        "meta_epoch": "2025-12-08T22:00:03.000096",
        "meta_mean_motion": 15.54989293,
        "meta_eccentricity": 0.0001698,
        "meta_inclination": 43.0001,
        "meta_ra_of_asc_node": 76.394,
        "meta_arg_of_pericenter": 280.0748,
        "meta_mean_anomaly": 84.7393,
        "meta_ephemeris_type": 0,
        "meta_classification_type": "U",
        "meta_norad_cat_id": 66517,
        "meta_element_set_no": 999,
        "meta_rev_at_epoch": 438,
        "meta_bstar": -0.0334833,
        "meta_mean_motion_dot": -0.0205516,
        "meta_mean_motion_ddot": 0,
        "tle_line1": "1 66517U 25265B   25342.91670139 -.02055160  00000+0 -33483-1 0  9999",
        "tle_line2": "2 66517  43.0001  76.3940 0001698 280.0748  84.7393 15.54989293  4381"
      },
      "geometry": {
        "type": "Point",
        "coordinates": [
          -173.64377725661566,
          40.75894763302437
        ]
      }
    },
    {
      "type": "Feature",
      "properties": {
        "norad_id": 66518,
        "name": "STARLINK-35962",
        "group": "last-30-days",
        "lat": 40.23593842029036,
        "lon": -171.22032225841784,
        "alt_km": 402.2234942769401,
        "timestamp": "2025-12-09T07:41:31.972372+00:00",
        "meta_object_name": "STARLINK-35962",
        "meta_object_id": "2025-265C",
        "meta_epoch": "2025-12-08T22:00:03.000096",
        "meta_mean_motion": 15.54986108,
        "meta_eccentricity": 0.00016328,
        "meta_inclination": 43,
        "meta_ra_of_asc_node": 76.3886,
        "meta_arg_of_pericenter": 279.2464,
        "meta_mean_anomaly": 87.486,
        "meta_ephemeris_type": 0,
        "meta_classification_type": "U",
        "meta_norad_cat_id": 66518,
        "meta_element_set_no": 999,
        "meta_rev_at_epoch": 438,
        "meta_bstar": -0.033373715,
        "meta_mean_motion_dot": -0.02048898,
        "meta_mean_motion_ddot": 0,
        "tle_line1": "1 66518U 25265C   25342.91670139 -.02048898  00000+0 -33374-1 0  9999",
        "tle_line2": "2 66518  43.0000  76.3886 0001632 279.2464  87.4860 15.54986108  4384"
      },
      "geometry": {
        "type": "Point",
        "coordinates": [
          -171.22032225841784,
          40.23593842029036
        ]
      }
    },
    {
      "type": "Feature",
      "properties": {
        "norad_id": 66519,
        "name": "STARLINK-35931",
        "group": "last-30-days",
        "lat": 39.66337280963646,
        "lon": -168.83579559875932,
        "alt_km": 402.28979608805184,
        "timestamp": "2025-12-09T07:41:31.972384+00:00",
        "meta_object_name": "STARLINK-35931",
        "meta_object_id": "2025-265D",
        "meta_epoch": "2025-12-08T22:00:03.000096",
        "meta_mean_motion": 15.54988313,
        "meta_eccentricity": 0.00016044,
        "meta_inclination": 43.0002,
        "meta_ra_of_asc_node": 76.3837,
        "meta_arg_of_pericenter": 279.8092,
        "meta_mean_anomaly": 88.8385,
        "meta_ephemeris_type": 0,
        "meta_classification_type": "U",
        "meta_norad_cat_id": 66519,
        "meta_element_set_no": 999,
        "meta_rev_at_epoch": 438,
        "meta_bstar": -0.033409615,
        "meta_mean_motion_dot": -0.02050996,
        "meta_mean_motion_ddot": 0,
        "tle_line1": "1 66519U 25265D   25342.91670139 -.02050996  00000+0 -33410-1 0  9993",
        "tle_line2": "2 66519  43.0002  76.3837 0001604 279.8092  88.8385 15.54988313  4382"
      },
      "geometry": {
        "type": "Point",
        "coordinates": [
          -168.83579559875932,
          39.66337280963646
        ]
      }
    },
    {
      "type": "Feature",
      "properties": {
        "norad_id": 66520,
        "name": "STARLINK-35952",
        "group": "last-30-days",
        "lat": 39.04255813784353,
        "lon": -166.49261794654754,
        "alt_km": 402.3970721419428,
        "timestamp": "2025-12-09T07:41:31.972394+00:00",
        "meta_object_name": "STARLINK-35952",
        "meta_object_id": "2025-265E",
        "meta_epoch": "2025-12-08T22:00:03.000096",
        "meta_mean_motion": 15.54987324,
        "meta_eccentricity": 0.00016237,
        "meta_inclination": 43.0003,
        "meta_ra_of_asc_node": 76.3783,
        "meta_arg_of_pericenter": 280.4026,
        "meta_mean_anomaly": 90.1632,
        "meta_ephemeris_type": 0,
        "meta_classification_type": "U",
        "meta_norad_cat_id": 66520,
        "meta_element_set_no": 999,
        "meta_rev_at_epoch": 438,
        "meta_bstar": -0.0333977,
        "meta_mean_motion_dot": -0.02050289,
        "meta_mean_motion_ddot": 0,
        "tle_line1": "1 66520U 25265E   25342.91670139 -.02050289  00000+0 -33398-1 0  9995",
        "tle_line2": "2 66520  43.0003  76.3783 0001623 280.4026  90.1632 15.54987324  4383"
      },
      "geometry": {
        "type": "Point",
        "coordinates": [
          -166.49261794654754,
          39.04255813784353
        ]
      }
    },
    {
      "type": "Feature",
      "properties": {
        "norad_id": 66521,
        "name": "STARLINK-35915",
        "group": "last-30-days",
        "lat": 38.37587694515719,
        "lon": -164.1925933537151,
        "alt_km": 402.4084379217329,
        "timestamp": "2025-12-09T07:41:31.972404+00:00",
        "meta_object_name": "STARLINK-35915",
        "meta_object_id": "2025-265F",
        "meta_epoch": "2025-12-08T22:00:03.000096",
        "meta_mean_motion": 15.54989972,
        "meta_eccentricity": 0.00015515,
        "meta_inclination": 43.0003,
        "meta_ra_of_asc_node": 76.3738,
        "meta_arg_of_pericenter": 275.0219,
        "meta_mean_anomaly": 97.4586,
        "meta_ephemeris_type": 0,
        "meta_classification_type": "U",
        "meta_norad_cat_id": 66521,
        "meta_element_set_no": 999,
        "meta_rev_at_epoch": 438,
        "meta_bstar": -0.033405446,
        "meta_mean_motion_dot": -0.02050847,
        "meta_mean_motion_ddot": 0,
        "tle_line1": "1 66521U 25265F   25342.91670139 -.02050847  00000+0 -33405-1 0  9995",
        "tle_line2": "2 66521  43.0003  76.3738 0001551 275.0219  97.4586 15.54989972  4387"
      },
      "geometry": {
        "type": "Point",
        "coordinates": [
          -164.1925933537151,
          38.37587694515719
        ]
      }
    },
    {
      "type": "Feature",
      "properties": {
        "norad_id": 66522,
        "name": "STARLINK-35946",
        "group": "last-30-days",
        "lat": 37.66429556936546,
        "lon": -161.9345831257877,
        "alt_km": 402.658777507344,
        "timestamp": "2025-12-09T07:41:31.972414+00:00",
        "meta_object_name": "STARLINK-35946",
        "meta_object_id": "2025-265G",
        "meta_epoch": "2025-12-08T22:00:03.000096",
        "meta_mean_motion": 15.54986095,
        "meta_eccentricity": 0.00017177,
        "meta_inclination": 43.0003,
        "meta_ra_of_asc_node": 76.3688,
        "meta_arg_of_pericenter": 280.9293,
        "meta_mean_anomaly": 93.4697,
        "meta_ephemeris_type": 0,
        "meta_classification_type": "U",
        "meta_norad_cat_id": 66522,
        "meta_element_set_no": 999,
        "meta_rev_at_epoch": 438,
        "meta_bstar": -0.033335625,
        "meta_mean_motion_dot": -0.02046865,
        "meta_mean_motion_ddot": 0,
        "tle_line1": "1 66522U 25265G   25342.91670139 -.02046865  00000+0 -33336-1 0  9994",
        "tle_line2": "2 66522  43.0003  76.3688 0001717 280.9293  93.4697 15.54986095  4385"
      },
      "geometry": {
        "type": "Point",
        "coordinates": [
          -161.9345831257877,
          37.66429556936546
        ]
      }
    },
    {
      "type": "Feature",
      "properties": {
        "norad_id": 66523,
        "name": "STARLINK-35969",
        "group": "last-30-days",
        "lat": 36.9107865412829,
        "lon": -159.72108648555994,
        "alt_km": 402.7817078011103,
        "timestamp": "2025-12-09T07:41:31.972424+00:00",
        "meta_object_name": "STARLINK-35969",
        "meta_object_id": "2025-265H",
        "meta_epoch": "2025-12-08T22:00:03.000096",
        "meta_mean_motion": 15.54985148,
        "meta_eccentricity": 0.00017496,
        "meta_inclination": 43.0005,
        "meta_ra_of_asc_node": 76.3643,
        "meta_arg_of_pericenter": 280.0024,
        "meta_mean_anomaly": 96.3145,
        "meta_ephemeris_type": 0,
        "meta_classification_type": "U",
        "meta_norad_cat_id": 66523,
        "meta_element_set_no": 999,
        "meta_rev_at_epoch": 438,
        "meta_bstar": -0.033309107,
        "meta_mean_motion_dot": -0.02045368,
        "meta_mean_motion_ddot": 0,
        "tle_line1": "1 66523U 25265H   25342.91670139 -.02045368  00000+0 -33309-1 0  9992",
        "tle_line2": "2 66523  43.0005  76.3643 0001749 280.0024  96.3145 15.54985148  4385"
      },
      "geometry": {
        "type": "Point",
        "coordinates": [
          -159.72108648555994,
          36.9107865412829
        ]
      }
    }
  ]
}